IRIDIUM 166             
1 43570U 18061B   24048.95632610  .00000045  00000+0  90362-5 0  9998
2 43570  86.3931  52.0495 0002038  98.6126 261.5301 14.34218109291532
IRIDIUM 158             
1 43571U 18061C   24048.92461413  .00000076  00000+0  20113-4 0  9997
2 43571  86.3933  52.0718 0002345  93.9229 266.2235 14.34217555291493
IRIDIUM 165             
1 43572U 18061D   24048.94998345  .00000052  00000+0  11549-4 0  9996
2 43572  86.3933  52.0915 0002379  95.5666 264.5801 14.34217687291523
IRIDIUM 155             
1 43573U 18061E   24048.91192489  .00000101  00000+0  28953-4 0  9991
2 43573  86.3930  52.0185 0001962  89.3580 270.7840 14.34216490291481
IRIDIUM 154             
1 43574U 18061F   24048.96266593  .00000074  00000+0  19274-4 0  9990
2 43574  86.3932  52.0892 0002322  84.8038 275.3423 14.34218738291540
IRIDIUM 163             
1 43575U 18061G   24048.94363999  .00000113  00000+0  33441-4 0  9993
2 43575  86.3930  52.0389 0002232  86.7854 273.3597 14.34219213291513
IRIDIUM 156             
1 43576U 18061H   24048.91826748  .00000050  00000+0  10846-4 0  9991
2 43576  86.3931  52.0558 0002193  95.0466 265.0980 14.34216009291504
IRIDIUM 164             
1 43577U 18061J   24048.75970392  .00000105  00000+0  30461-4 0  9995
2 43577  86.3932  52.1494 0002389  91.2854 268.8615 14.34218129291525
